[{"OBJECT_NAME":"INTELSAT 10 (IS-10)","OBJECT_ID":"2001-019A","EPOCH":"2026-02-01T13:06:11.743200","MEAN_MOTION":0.99072978,"ECCENTRICITY":0.0008509,"INCLINATION":8.7507,"RA_OF_ASC_NODE":60.6332,"ARG_OF_PERICENTER":250.4474,"MEAN_ANOMALY":297.1011,"EPHEMERIS_TYPE":0,"CLASSIFICATION_TYPE":"U","NORAD_CAT_ID":26766,"ELEMENT_SET_NO":999,"REV_AT_EPOCH":4423,"BSTAR":0,"MEAN_MOTION_DOT":-9.4e-7,"MEAN_MOTION_DDOT":0},{"OBJECT_NAME":"INTELSAT 902 (IS-902)","OBJECT_ID":"2001-039A","EPOCH":"2026-02-01T21:48:25.623360","MEAN_MOTION":1.00270363,"ECCENTRICITY":0.0004597,"INCLINATION":5.7753,"RA_OF_ASC_NODE":73.451,"ARG_OF_PERICENTER":243.9119,"MEAN_ANOMALY":91.7302,"EPHEMERIS_TYPE":0,"CLASSIFICATION_TYPE":"U","NORAD_CAT_ID":26900,"ELEMENT_SET_NO":999,"REV_AT_EPOCH":8933,"BSTAR":0,"MEAN_MOTION_DOT":-2.95e-6,"MEAN_MOTION_DDOT":0},{"OBJECT_NAME":"INTELSAT 904 (IS-904)","OBJECT_ID":"2002-007A","EPOCH":"2026-02-01T08:12:04.063680","MEAN_MOTION":1.00269143,"ECCENTRICITY":0.00042627,"INCLINATION":6.5807,"RA_OF_ASC_NODE":70.8281,"ARG_OF_PERICENTER":287.8947,"MEAN_ANOMALY":224.2881,"EPHEMERIS_TYPE":0,"CLASSIFICATION_TYPE":"U","NORAD_CAT_ID":27380,"ELEMENT_SET_NO":999,"REV_AT_EPOCH":5040,"BSTAR":0,"MEAN_MOTION_DOT":-2.38e-6,"MEAN_MOTION_DDOT":0},{"OBJECT_NAME":"DIRECTV 5 (TEMPO 1)","OBJECT_ID":"2002-023A","EPOCH":"2026-02-01T16:23:10.922784","MEAN_MOTION":1.00271032,"ECCENTRICITY":0.00035158,"INCLINATION":4.5319,"RA_OF_ASC_NODE":77.0242,"ARG_OF_PERICENTER":238.3445,"MEAN_ANOMALY":312.1662,"EPHEMERIS_TYPE":0,"CLASSIFICATION_TYPE":"U","NORAD_CAT_ID":27426,"ELEMENT_SET_NO":999,"REV_AT_EPOCH":8676,"BSTAR":0,"MEAN_MOTION_DOT":-6.8e-7,"MEAN_MOTION_DDOT":0},{"OBJECT_NAME":"INTELSAT 905 (IS-905)","OBJECT_ID":"2002-027A","EPOCH":"2026-02-01T17:58:10.187328","MEAN_MOTION":1.00272815,"ECCENTRICITY":0.00031087,"INCLINATION":6.4134,"RA_OF_ASC_NODE":71.4451,"ARG_OF_PERICENTER":248.9541,"MEAN_ANOMALY":303.8735,"EPHEMERIS_TYPE":0,"CLASSIFICATION_TYPE":"U","NORAD_CAT_ID":27438,"ELEMENT_SET_NO":999,"REV_AT_EPOCH":5000,"BSTAR":0,"MEAN_MOTION_DOT":8.2e-7,"MEAN_MOTION_DDOT":0},{"OBJECT_NAME":"GALAXY 3C (G-3C)","OBJECT_ID":"2002-030A","EPOCH":"2026-02-01T19:52:59.185056","MEAN_MOTION":1.002714,"ECCENTRICITY":6.283e-5,"INCLINATION":3.3894,"RA_OF_ASC_NODE":79.8915,"ARG_OF_PERICENTER":72.714,"MEAN_ANOMALY":182.8037,"EPHEMERIS_TYPE":0,"CLASSIFICATION_TYPE":"U","NORAD_CAT_ID":27445,"ELEMENT_SET_NO":999,"REV_AT_EPOCH":4513,"BSTAR":0,"MEAN_MOTION_DOT":-1.64e-6,"MEAN_MOTION_DDOT":0},{"OBJECT_NAME":"INTELSAT 906 (IS-906)","OBJECT_ID":"2002-041A","EPOCH":"2026-02-01T20:52:21.517536","MEAN_MOTION":1.00271643,"ECCENTRICITY":0.0004557,"INCLINATION":5.4587,"RA_OF_ASC_NODE":74.6066,"ARG_OF_PERICENTER":219.8164,"MEAN_ANOMALY":214.8757,"EPHEMERIS_TYPE":0,"CLASSIFICATION_TYPE":"U","NORAD_CAT_ID":27513,"ELEMENT_SET_NO":999,"REV_AT_EPOCH":8567,"BSTAR":0,"MEAN_MOTION_DOT":1.0e-8,"MEAN_MOTION_DDOT":0},{"OBJECT_NAME":"GALAXY 13 (HORIZONS-1)","OBJECT_ID":"2003-044A","EPOCH":"2026-02-01T17:54:33.033888","MEAN_MOTION":1.00271037,"ECCENTRICITY":0.00020814,"INCLINATION":1.0679,"RA_OF_ASC_NODE":85.8015,"ARG_OF_PERICENTER":226.9112,"MEAN_ANOMALY":297.8323,"EPHEMERIS_TYPE":0,"CLASSIFICATION_TYPE":"U","NORAD_CAT_ID":27954,"ELEMENT_SET_NO":999,"REV_AT_EPOCH":4521,"BSTAR":0,"MEAN_MOTION_DOT":1.22e-6,"MEAN_MOTION_DDOT":0},{"OBJECT_NAME":"INTELSAT 10-02","OBJECT_ID":"2004-022A","EPOCH":"2026-02-01T22:02:24.283104","MEAN_MOTION":1.00269531,"ECCENTRICITY":8.759e-5,"INCLINATION":0.0153,"RA_OF_ASC_NODE":91.5029,"ARG_OF_PERICENTER":254.6658,"MEAN_ANOMALY":115.5491,"EPHEMERIS_TYPE":0,"CLASSIFICATION_TYPE":"U","NORAD_CAT_ID":28358,"ELEMENT_SET_NO":999,"REV_AT_EPOCH":7920,"BSTAR":0,"MEAN_MOTION_DOT":-2.1e-7,"MEAN_MOTION_DDOT":0},{"OBJECT_NAME":"DIRECTV 8","OBJECT_ID":"2005-019A","EPOCH":"2026-02-01T21:28:27.537024","MEAN_MOTION":1.00271276,"ECCENTRICITY":0.00033329,"INCLINATION":0.0157,"RA_OF_ASC_NODE":71.9409,"ARG_OF_PERICENTER":251.4872,"MEAN_ANOMALY":11.7014,"EPHEMERIS_TYPE":0,"CLASSIFICATION_TYPE":"U","NORAD_CAT_ID":28659,"ELEMENT_SET_NO":999,"REV_AT_EPOCH":7571,"BSTAR":0,"MEAN_MOTION_DOT":-8.0e-8,"MEAN_MOTION_DDOT":0},{"OBJECT_NAME":"GALAXY 28 (G-28)","OBJECT_ID":"2005-022A","EPOCH":"2026-02-01T21:51:55.287648","MEAN_MOTION":1.00585965,"ECCENTRICITY":0.00020155,"INCLINATION":2.95,"RA_OF_ASC_NODE":80.6626,"ARG_OF_PERICENTER":222.2551,"MEAN_ANOMALY":119.4596,"EPHEMERIS_TYPE":0,"CLASSIFICATION_TYPE":"U","NORAD_CAT_ID":28702,"ELEMENT_SET_NO":999,"REV_AT_EPOCH":5061,"BSTAR":0,"MEAN_MOTION_DOT":-2.28e-6,"MEAN_MOTION_DDOT":0},{"OBJECT_NAME":"GALAXY 16 (G-16)","OBJECT_ID":"2006-023A","EPOCH":"2026-02-01T21:34:26.962752","MEAN_MOTION":1.00273854,"ECCENTRICITY":0.00030832,"INCLINATION":0.0436,"RA_OF_ASC_NODE":232.9921,"ARG_OF_PERICENTER":86.4418,"MEAN_ANOMALY":37.2363,"EPHEMERIS_TYPE":0,"CLASSIFICATION_TYPE":"U","NORAD_CAT_ID":29236,"ELEMENT_SET_NO":999,"REV_AT_EPOCH":7161,"BSTAR":0,"MEAN_MOTION_DOT":-1.37e-6,"MEAN_MOTION_DDOT":0},{"OBJECT_NAME":"DIRECTV 9S","OBJECT_ID":"2006-043A","EPOCH":"2026-02-01T21:33:49.523040","MEAN_MOTION":1.00270756,"ECCENTRICITY":0.00032028,"INCLINATION":2.0718,"RA_OF_ASC_NODE":82.6133,"ARG_OF_PERICENTER":235.8929,"MEAN_ANOMALY":35.8049,"EPHEMERIS_TYPE":0,"CLASSIFICATION_TYPE":"U","NORAD_CAT_ID":29494,"ELEMENT_SET_NO":999,"REV_AT_EPOCH":5002,"BSTAR":0,"MEAN_MOTION_DOT":-1.24e-6,"MEAN_MOTION_DDOT":0},{"OBJECT_NAME":"GALAXY 17 (G-17)","OBJECT_ID":"2007-016B","EPOCH":"2026-02-01T21:38:26.580192","MEAN_MOTION":1.0027013,"ECCENTRICITY":0.0004816,"INCLINATION":2.6291,"RA_OF_ASC_NODE":81.6571,"ARG_OF_PERICENTER":209.7104,"MEAN_ANOMALY":80.3173,"EPHEMERIS_TYPE":0,"CLASSIFICATION_TYPE":"U","NORAD_CAT_ID":31307,"ELEMENT_SET_NO":999,"REV_AT_EPOCH":6844,"BSTAR":0,"MEAN_MOTION_DOT":-2.17e-6,"MEAN_MOTION_DDOT":0},{"OBJECT_NAME":"DIRECTV 10","OBJECT_ID":"2007-032A","EPOCH":"2026-01-31T13:20:37.243104","MEAN_MOTION":0.99645906,"ECCENTRICITY":0.00049717,"INCLINATION":0.05,"RA_OF_ASC_NODE":116.8973,"ARG_OF_PERICENTER":254.3975,"MEAN_ANOMALY":211.1935,"EPHEMERIS_TYPE":0,"CLASSIFICATION_TYPE":"U","NORAD_CAT_ID":31862,"ELEMENT_SET_NO":999,"REV_AT_EPOCH":4422,"BSTAR":0,"MEAN_MOTION_DOT":9.0e-8,"MEAN_MOTION_DDOT":0},{"OBJECT_NAME":"INTELSAT 11 (IS-11)","OBJECT_ID":"2007-044B","EPOCH":"2026-02-01T22:02:54.236256","MEAN_MOTION":0.99052309,"ECCENTRICITY":0.00072122,"INCLINATION":3.2132,"RA_OF_ASC_NODE":80.3641,"ARG_OF_PERICENTER":190.6388,"MEAN_ANOMALY":192.4262,"EPHEMERIS_TYPE":0,"CLASSIFICATION_TYPE":"U","NORAD_CAT_ID":32253,"ELEMENT_SET_NO":999,"REV_AT_EPOCH":6711,"BSTAR":0,"MEAN_MOTION_DOT":-1.77e-6,"MEAN_MOTION_DDOT":0},{"OBJECT_NAME":"HORIZONS-2","OBJECT_ID":"2007-063B","EPOCH":"2026-02-01T21:41:41.268768","MEAN_MOTION":1.00269106,"ECCENTRICITY":0.00039662,"INCLINATION":2.2536,"RA_OF_ASC_NODE":82.3569,"ARG_OF_PERICENTER":221.9622,"MEAN_ANOMALY":79.3721,"EPHEMERIS_TYPE":0,"CLASSIFICATION_TYPE":"U","NORAD_CAT_ID":32388,"ELEMENT_SET_NO":999,"REV_AT_EPOCH":6645,"BSTAR":0,"MEAN_MOTION_DOT":-2.64e-6,"MEAN_MOTION_DDOT":0}]
