INTELSAT 10 (IS-10)     
1 26766U 01019A   26032.54596925 -.00000094  00000+0  00000+0 0  9998
2 26766   8.7507  60.6332 0008509 250.4474 297.1011  0.99072978 44239
INTELSAT 902 (IS-902)   
1 26900U 01039A   26032.90862990 -.00000295  00000+0  00000+0 0  9991
2 26900   5.7753  73.4510 0004597 243.9119  91.7302  1.00270363 89337
INTELSAT 904 (IS-904)   
1 27380U 02007A   26032.34171370 -.00000238  00000+0  00000+0 0  9990
2 27380   6.5807  70.8281 0004262 287.8947 224.2881  1.00269143 50405
DIRECTV 5 (TEMPO 1)     
1 27426U 02023A   26032.68276531 -.00000068  00000+0  00000+0 0  9992
2 27426   4.5319  77.0242 0003515 238.3445 312.1662  1.00271032 86764
INTELSAT 905 (IS-905)   
1 27438U 02027A   26032.74872902  .00000082  00000+0  00000+0 0  9995
2 27438   6.4134  71.4451 0003108 248.9541 303.8735  1.00272815 50001
GALAXY 3C (G-3C)        
1 27445U 02030A   26032.82846279 -.00000164  00000+0  00000+0 0  9996
2 27445   3.3894  79.8915 0000628  72.7140 182.8037  1.00271400 45134
INTELSAT 906 (IS-906)   
1 27513U 02041A   26032.86969349  .00000001  00000+0  00000+0 0  9991
2 27513   5.4587  74.6066 0004557 219.8164 214.8757  1.00271643 85674
GALAXY 13 (HORIZONS-1)  
1 27954U 03044A   26032.74621567  .00000122  00000+0  00000+0 0  9992
2 27954   1.0679  85.8015 0002081 226.9112 297.8323  1.00271037 45210
INTELSAT 10-02          
1 28358U 04022A   26032.91833661 -.00000021  00000+0  00000+0 0  9996
2 28358   0.0153  91.5029 0000875 254.6658 115.5491  1.00269531 79200
DIRECTV 8               
1 28659U 05019A   26032.89476316 -.00000008  00000+0  00000+0 0  9999
2 28659   0.0157  71.9409 0003332 251.4872  11.7014  1.00271276 75715
GALAXY 28 (G-28)        
1 28702U 05022A   26032.91105657 -.00000228  00000+0  00000+0 0  9996
2 28702   2.9500  80.6626 0002015 222.2551 119.4596  1.00585965 50618
GALAXY 16 (G-16)        
1 29236U 06023A   26032.89892318 -.00000137  00000+0  00000+0 0  9994
2 29236   0.0436 232.9921 0003083  86.4418  37.2363  1.00273854 71619
DIRECTV 9S              
1 29494U 06043A   26032.89848985 -.00000124  00000+0  00000+0 0  9999
2 29494   2.0718  82.6133 0003202 235.8929  35.8049  1.00270756 50020
GALAXY 17 (G-17)        
1 31307U 07016B   26032.90169653 -.00000217  00000+0  00000+0 0  9999
2 31307   2.6291  81.6571 0004816 209.7104  80.3173  1.00270130 68444
DIRECTV 10              
1 31862U 07032A   26031.55598661  .00000009  00000+0  00000+0 0  9996
2 31862   0.0500 116.8973 0004971 254.3975 211.1935  0.99645906 44220
INTELSAT 11 (IS-11)     
1 32253U 07044B   26032.91868329 -.00000177  00000+0  00000+0 0  9993
2 32253   3.2132  80.3641 0007212 190.6388 192.4262  0.99052309 67115
HORIZONS-2              
1 32388U 07063B   26032.90394987 -.00000264  00000+0  00000+0 0  9993
2 32388   2.2536  82.3569 0003966 221.9622  79.3721  1.00269106 66450
